CCSDS_OMM_VERS = 2.0
CREATION_DATE  = 
ORIGINATOR     = 

OBJECT_NAME    = COSMOS 2242
OBJECT_ID      = 1993-024A
CENTER_NAME    = EARTH
REF_FRAME      = TEME
TIME_SYSTEM    = UTC
MEAN_ELEMENT_THEORY = SGP/SGP4

EPOCH          = 2026-03-17T20:38:12.038784
MEAN_MOTION    = 14.96582696
ECCENTRICITY   = .0014922
INCLINATION    = 82.5152
RA_OF_ASC_NODE = 258.8994
ARG_OF_PERICENTER = 278.9507
MEAN_ANOMALY   = 81.0026

EPHEMERIS_TYPE = 0
CLASSIFICATION_TYPE = U
NORAD_CAT_ID   = 22626
ELEMENT_SET_NO = 999
REV_AT_EPOCH   = 78161
BSTAR          = .1614E-3
MEAN_MOTION_DOT = .1866E-4
MEAN_MOTION_DDOT = 0

CCSDS_OMM_VERS = 2.0
CREATION_DATE  = 
ORIGINATOR     = 

OBJECT_NAME    = SL-16 R/B
OBJECT_ID      = 1993-059B
CENTER_NAME    = EARTH
REF_FRAME      = TEME
TIME_SYSTEM    = UTC
MEAN_ELEMENT_THEORY = SGP/SGP4

EPOCH          = 2026-03-17T12:33:21.700512
MEAN_MOTION    = 14.17232591
ECCENTRICITY   = .00180745
INCLINATION    = 70.9931
RA_OF_ASC_NODE = 354.6083
ARG_OF_PERICENTER = 205.0597
MEAN_ANOMALY   = 154.9651

EPHEMERIS_TYPE = 0
CLASSIFICATION_TYPE = U
NORAD_CAT_ID   = 22803
ELEMENT_SET_NO = 999
REV_AT_EPOCH   = 68064
BSTAR          = .13202627E-3
MEAN_MOTION_DOT = .219E-5
MEAN_MOTION_DDOT = 0

CCSDS_OMM_VERS = 2.0
CREATION_DATE  = 
ORIGINATOR     = 

OBJECT_NAME    = ARIANE 40 R/B
OBJECT_ID      = 1993-061H
CENTER_NAME    = EARTH
REF_FRAME      = TEME
TIME_SYSTEM    = UTC
MEAN_ELEMENT_THEORY = SGP/SGP4

EPOCH          = 2026-03-17T14:08:45.007584
MEAN_MOTION    = 14.32865115
ECCENTRICITY   = .00095768
INCLINATION    = 98.4901
RA_OF_ASC_NODE = 145.3206
ARG_OF_PERICENTER = 258.9482
MEAN_ANOMALY   = 101.0626

EPHEMERIS_TYPE = 0
CLASSIFICATION_TYPE = U
NORAD_CAT_ID   = 22830
ELEMENT_SET_NO = 999
REV_AT_EPOCH   = 69523
BSTAR          = .85623995E-4
MEAN_MOTION_DOT = .191E-5
MEAN_MOTION_DDOT = 0

CCSDS_OMM_VERS = 2.0
CREATION_DATE  = 
ORIGINATOR     = 

OBJECT_NAME    = COSMOS 2278
OBJECT_ID      = 1994-023A
CENTER_NAME    = EARTH
REF_FRAME      = TEME
TIME_SYSTEM    = UTC
MEAN_ELEMENT_THEORY = SGP/SGP4

EPOCH          = 2026-03-17T14:08:50.533728
MEAN_MOTION    = 14.14379207
ECCENTRICITY   = .00085976
INCLINATION    = 71.0545
RA_OF_ASC_NODE = 158.5718
ARG_OF_PERICENTER = 359.2074
MEAN_ANOMALY   = 0.9033

EPHEMERIS_TYPE = 0
CLASSIFICATION_TYPE = U
NORAD_CAT_ID   = 23087
ELEMENT_SET_NO = 999
REV_AT_EPOCH   = 64592
BSTAR          = -.47654564E-4
MEAN_MOTION_DOT = -.138E-5
MEAN_MOTION_DDOT = 0

CCSDS_OMM_VERS = 2.0
CREATION_DATE  = 
ORIGINATOR     = 

OBJECT_NAME    = SL-16 R/B
OBJECT_ID      = 1994-023B
CENTER_NAME    = EARTH
REF_FRAME      = TEME
TIME_SYSTEM    = UTC
MEAN_ELEMENT_THEORY = SGP/SGP4

EPOCH          = 2026-03-17T15:10:39.680544
MEAN_MOTION    = 14.15009992
ECCENTRICITY   = .0005546
INCLINATION    = 70.9991
RA_OF_ASC_NODE = 54.2049
ARG_OF_PERICENTER = 277.8681
MEAN_ANOMALY   = 82.1812

EPHEMERIS_TYPE = 0
CLASSIFICATION_TYPE = U
NORAD_CAT_ID   = 23088
ELEMENT_SET_NO = 999
REV_AT_EPOCH   = 64721
BSTAR          = -.12077187E-4
MEAN_MOTION_DOT = -.71E-6
MEAN_MOTION_DDOT = 0

CCSDS_OMM_VERS = 2.0
CREATION_DATE  = 
ORIGINATOR     = 

OBJECT_NAME    = SL-16 R/B
OBJECT_ID      = 1994-074B
CENTER_NAME    = EARTH
REF_FRAME      = TEME
TIME_SYSTEM    = UTC
MEAN_ELEMENT_THEORY = SGP/SGP4

EPOCH          = 2026-03-17T20:42:50.213952
MEAN_MOTION    = 14.79417336
ECCENTRICITY   = .0006415
INCLINATION    = 97.7097
RA_OF_ASC_NODE = 107.3496
ARG_OF_PERICENTER = 181.9557
MEAN_ANOMALY   = 351.0502

EPHEMERIS_TYPE = 0
CLASSIFICATION_TYPE = U
NORAD_CAT_ID   = 23343
ELEMENT_SET_NO = 999
REV_AT_EPOCH   = 68845
BSTAR          = .62346E-4
MEAN_MOTION_DOT = .416E-5
MEAN_MOTION_DDOT = 0

CCSDS_OMM_VERS = 2.0
CREATION_DATE  = 
ORIGINATOR     = 

OBJECT_NAME    = SL-16 R/B
OBJECT_ID      = 1994-077B
CENTER_NAME    = EARTH
REF_FRAME      = TEME
TIME_SYSTEM    = UTC
MEAN_ELEMENT_THEORY = SGP/SGP4

EPOCH          = 2026-03-17T11:16:14.272896
MEAN_MOTION    = 14.15564269
ECCENTRICITY   = .00026425
INCLINATION    = 70.9851
RA_OF_ASC_NODE = 336.1231
ARG_OF_PERICENTER = 202.4631
MEAN_ANOMALY   = 157.6377

EPHEMERIS_TYPE = 0
CLASSIFICATION_TYPE = U
NORAD_CAT_ID   = 23405
ELEMENT_SET_NO = 999
REV_AT_EPOCH   = 61733
BSTAR          = .18120305E-3
MEAN_MOTION_DOT = .307E-5
MEAN_MOTION_DDOT = 0

CCSDS_OMM_VERS = 2.0
CREATION_DATE  = 
ORIGINATOR     = 

OBJECT_NAME    = ARIANE 40+ R/B
OBJECT_ID      = 1995-021B
CENTER_NAME    = EARTH
REF_FRAME      = TEME
TIME_SYSTEM    = UTC
MEAN_ELEMENT_THEORY = SGP/SGP4

EPOCH          = 2026-03-17T14:52:42.510144
MEAN_MOTION    = 14.39778129
ECCENTRICITY   = .00079007
INCLINATION    = 98.4482
RA_OF_ASC_NODE = 147.9946
ARG_OF_PERICENTER = 115.7230
MEAN_ANOMALY   = 47.0988

EPHEMERIS_TYPE = 0
CLASSIFICATION_TYPE = U
NORAD_CAT_ID   = 23561
ELEMENT_SET_NO = 999
REV_AT_EPOCH   = 62038
BSTAR          = .95315606E-4
MEAN_MOTION_DOT = .255E-5
MEAN_MOTION_DDOT = 0

CCSDS_OMM_VERS = 2.0
CREATION_DATE  = 
ORIGINATOR     = 

OBJECT_NAME    = SL-16 R/B
OBJECT_ID      = 1995-058B
CENTER_NAME    = EARTH
REF_FRAME      = TEME
TIME_SYSTEM    = UTC
MEAN_ELEMENT_THEORY = SGP/SGP4

EPOCH          = 2026-03-17T11:26:50.230464
MEAN_MOTION    = 14.15500016
ECCENTRICITY   = .00104227
INCLINATION    = 71.0223
RA_OF_ASC_NODE = 163.9069
ARG_OF_PERICENTER = 111.6550
MEAN_ANOMALY   = 248.5684

EPHEMERIS_TYPE = 0
CLASSIFICATION_TYPE = U
NORAD_CAT_ID   = 23705
ELEMENT_SET_NO = 999
REV_AT_EPOCH   = 56895
BSTAR          = .92441595E-4
MEAN_MOTION_DOT = .133E-5
MEAN_MOTION_DDOT = 0

CCSDS_OMM_VERS = 2.0
CREATION_DATE  = 
ORIGINATOR     = 

OBJECT_NAME    = SL-16 R/B
OBJECT_ID      = 1996-051B
CENTER_NAME    = EARTH
REF_FRAME      = TEME
TIME_SYSTEM    = UTC
MEAN_ELEMENT_THEORY = SGP/SGP4

EPOCH          = 2026-03-17T11:03:14.351328
MEAN_MOTION    = 14.12417668
ECCENTRICITY   = .00144253
INCLINATION    = 70.7600
RA_OF_ASC_NODE = 158.7921
ARG_OF_PERICENTER = 135.9266
MEAN_ANOMALY   = 224.3007

EPHEMERIS_TYPE = 0
CLASSIFICATION_TYPE = U
NORAD_CAT_ID   = 24298
ELEMENT_SET_NO = 999
REV_AT_EPOCH   = 52274
BSTAR          = .67834013E-4
MEAN_MOTION_DOT = .76E-6
MEAN_MOTION_DDOT = 0

CCSDS_OMM_VERS = 2.0
CREATION_DATE  = 
ORIGINATOR     = 

OBJECT_NAME    = ORBVIEW 2 (SEASTAR)
OBJECT_ID      = 1997-037A
CENTER_NAME    = EARTH
REF_FRAME      = TEME
TIME_SYSTEM    = UTC
MEAN_ELEMENT_THEORY = SGP/SGP4

EPOCH          = 2026-03-17T10:24:23.926464
MEAN_MOTION    = 14.35500521
ECCENTRICITY   = .00028808
INCLINATION    = 98.8580
RA_OF_ASC_NODE = 240.9510
ARG_OF_PERICENTER = 56.0320
MEAN_ANOMALY   = 304.1138

EPHEMERIS_TYPE = 0
CLASSIFICATION_TYPE = U
NORAD_CAT_ID   = 24883
ELEMENT_SET_NO = 999
REV_AT_EPOCH   = 50958
BSTAR          = .10087448E-3
MEAN_MOTION_DOT = .243E-5
MEAN_MOTION_DDOT = 0

CCSDS_OMM_VERS = 2.0
CREATION_DATE  = 
ORIGINATOR     = 

OBJECT_NAME    = SL-16 R/B
OBJECT_ID      = 1998-043G
CENTER_NAME    = EARTH
REF_FRAME      = TEME
TIME_SYSTEM    = UTC
MEAN_ELEMENT_THEORY = SGP/SGP4

EPOCH          = 2026-03-17T20:53:34.524672
MEAN_MOTION    = 14.26051681
ECCENTRICITY   = .0009788
INCLINATION    = 98.8268
RA_OF_ASC_NODE = 30.2925
ARG_OF_PERICENTER = 357.3010
MEAN_ANOMALY   = 2.8115

EPHEMERIS_TYPE = 0
CLASSIFICATION_TYPE = U
NORAD_CAT_ID   = 25400
ELEMENT_SET_NO = 999
REV_AT_EPOCH   = 44015
BSTAR          = .398E-4
MEAN_MOTION_DOT = .5E-6
MEAN_MOTION_DDOT = 0

